[
    {
        "CCSDS_OMM_VERS": "3.0",
        "COMMENT": "GENERATED VIA SPACE-TRACK.ORG API",
        "CREATION_DATE": "2025-05-02T02:33:21",
        "ORIGINATOR": "18 SPCS",
        "OBJECT_NAME": "GALILEO 31 (10D)",
        "OBJECT_ID": "2024-167B",
        "CENTER_NAME": "EARTH",
        "REF_FRAME": "TEME",
        "TIME_SYSTEM": "UTC",
        "MEAN_ELEMENT_THEORY": "SGP4",
        "EPOCH": "2025-05-01T21:21:12.145824",
        "MEAN_MOTION": "1.70474315",
        "ECCENTRICITY": "0.00020240",
        "INCLINATION": "55.3187",
        "RA_OF_ASC_NODE": "232.6028",
        "ARG_OF_PERICENTER": "176.4355",
        "MEAN_ANOMALY": "180.7419",
        "EPHEMERIS_TYPE": "0",
        "CLASSIFICATION_TYPE": "U",
        "NORAD_CAT_ID": "61183",
        "ELEMENT_SET_NO": "999",
        "REV_AT_EPOCH": "383",
        "BSTAR": "0.00000000000000",
        "MEAN_MOTION_DOT": "-0.00000018",
        "MEAN_MOTION_DDOT": "0.0000000000000",
        "SEMIMAJOR_AXIS": "29600.284",
        "PERIOD": "844.702",
        "APOAPSIS": "23228.140",
        "PERIAPSIS": "23216.157",
        "OBJECT_TYPE": "PAYLOAD",
        "RCS_SIZE": "LARGE",
        "COUNTRY_CODE": "ESA",
        "LAUNCH_DATE": "2024-09-17",
        "SITE": "AFETR",
        "DECAY_DATE": null,
        "FILE": "4716572",
        "GP_ID": "286621361",
        "TLE_LINE0": "0 GALILEO 31 (10D)",
        "TLE_LINE1": "1 61183U 24167B   25121.88972391 -.00000018  00000-0  00000-0 0  9997",
        "TLE_LINE2": "2 61183  55.3187 232.6028 0002024 176.4355 180.7419  1.70474315  3838"
    }
]